{
  "norad_id": 64327,
  "name": "STARLINK-11674 [DTC]",
  "history": [
    {
      "epoch": "2026-05-05T19:47:29.933664Z",
      "apogee_km": 358.1271804644248,
      "perigee_km": 354.1876182408023,
      "latitude_deg": 2.710324130225159e-06,
      "longitude_deg": -116.05350915378345,
      "height_km": 355.82370653452296,
      "semi_major_axis_km": 6734.294399352613,
      "eccentricity": 0.0002925,
      "inclination_deg": 43.0018,
      "raan_deg": 44.5153,
      "arg_perigee_deg": 273.1272,
      "mean_anomaly_deg": 86.9261,
      "mean_motion_rev_day": 15.70958146
    },
    {
      "epoch": "2026-05-06T11:03:08.643744Z",
      "apogee_km": 357.6935565986123,
      "perigee_km": 354.98266098831755,
      "latitude_deg": 5.930752313289727e-05,
      "longitude_deg": 10.577419917821953,
      "height_km": 355.4825700623882,
      "semi_major_axis_km": 6734.475108793465,
      "eccentricity": 0.00020127,
      "inclination_deg": 43.0003,
      "raan_deg": 40.6842,
      "arg_perigee_deg": 297.6208,
      "mean_anomaly_deg": 62.4456,
      "mean_motion_rev_day": 15.70894915
    },
    {
      "epoch": "2026-05-07T17:34:18.338880Z",
      "apogee_km": 358.06990461229816,
      "perigee_km": 354.14922626189946,
      "latitude_deg": 6.168897007504561e-05,
      "longitude_deg": -96.1327641037152,
      "height_km": 356.3805399902528,
      "semi_major_axis_km": 6734.246565437098,
      "eccentricity": 0.0002911,
      "inclination_deg": 43.002,
      "raan_deg": 33.0178,
      "arg_perigee_deg": 255.3031,
      "mean_anomaly_deg": 104.7515,
      "mean_motion_rev_day": 15.70974884
    },
    {
      "epoch": "2026-05-08T16:27:41.073120Z",
      "apogee_km": 357.7167010063931,
      "perigee_km": 355.08888357944124,
      "latitude_deg": 4.489273383957166e-05,
      "longitude_deg": -86.16645532842045,
      "height_km": 356.24075010466146,
      "semi_major_axis_km": 6734.539792292917,
      "eccentricity": 0.0001951,
      "inclination_deg": 43.0017,
      "raan_deg": 27.2689,
      "arg_perigee_deg": 267.1688,
      "mean_anomaly_deg": 92.8957,
      "mean_motion_rev_day": 15.70872283
    },
    {
      "epoch": "2026-05-09T00:05:29.679936Z",
      "apogee_km": 357.9195750590279,
      "perigee_km": 354.9026321995634,
      "latitude_deg": 8.59029299067872e-06,
      "longitude_deg": 157.1498167815582,
      "height_km": 356.6723701244077,
      "semi_major_axis_km": 6734.548103629295,
      "eccentricity": 0.00022399,
      "inclination_deg": 43.0034,
      "raan_deg": 25.3511,
      "arg_perigee_deg": 251.1271,
      "mean_anomaly_deg": 108.9354,
      "mean_motion_rev_day": 15.70869375
    },
    {
      "epoch": "2026-05-10T17:17:37.343040Z",
      "apogee_km": 357.31071681254343,
      "perigee_km": 355.3267461540481,
      "latitude_deg": -8.034619077818204e-06,
      "longitude_deg": -112.92074453168624,
      "height_km": 356.47588012420545,
      "semi_major_axis_km": 6734.4557314832955,
      "eccentricity": 0.0001473,
      "inclination_deg": 43.0005,
      "raan_deg": 15.0046,
      "arg_perigee_deg": 247.1792,
      "mean_anomaly_deg": 112.892,
      "mean_motion_rev_day": 15.70901695
    }
  ]
}